NORAD_CAT_ID,OBJECT_NAME,OBJECT_TYPE,EPOCH,MEAN_MOTION,ECCENTRICITY,INCLINATION,RA_OF_ASC_NODE,ARG_OF_PERICENTER,MEAN_ANOMALY,BSTAR,MEAN_MOTION_DOT,MEAN_MOTION_DDOT,TLE_LINE0,TLE_LINE1,TLE_LINE2,SEMIMAJOR_AXIS,PERIOD,APOGEE,PERIGEE,DECAYED
55960.0,STARLINK-5938,PAYLOAD,2024-06-24 00:57:26,14.9833371,0.0002904,70.0004,36.9959,267.1736,92.909,1.3393e-05,6.7e-07,0.0,0 STARLINK-5938,1 55960U 23037AY  24176.03988879  .00000067  00000-0  13393-4 0  9998,2 55960  70.0004  36.9959 0002904 267.1736  92.9090 14.98333710 71057,6950.181,96.107,574.065,570.028,0.0
55960.0,STARLINK-5938,PAYLOAD,2024-06-24 20:11:03,14.98330868,0.0002819,70.0007,34.9757,269.117,90.9666,1.8712e-05,1.3e-06,0.0,0 STARLINK-5938,1 55960U 23037AY  24176.84100923  .00000130  00000-0  18712-4 0  9994,2 55960  70.0007  34.9757 0002819 269.1170  90.9666 14.98330868 71512,6950.19,96.107,574.014,570.096,0.0
55960.0,STARLINK-5938,PAYLOAD,2024-06-24 21:47:11,14.98330873,0.0002822,70.0007,34.8074,269.3538,90.7298,1.8142e-05,1.24e-06,0.0,0 STARLINK-5938,1 55960U 23037AY  24176.90776921  .00000124  00000-0  18142-4 0  9998,2 55960  70.0007  34.8074 0002822 269.3538  90.7298 14.98330873 71185,6950.19,96.107,574.017,570.094,0.0
55960.0,STARLINK-5938,PAYLOAD,2024-06-25 00:59:27,14.98331622,0.0002815,70.0007,34.4709,269.372,90.7117,2.5128e-05,2.07e-06,0.0,0 STARLINK-5938,1 55960U 23037AY  24177.04128839  .00000207  00000-0  25128-4 0  9997,2 55960  70.0007  34.4709 0002815 269.3720  90.7117 14.98331622 71207,6950.188,96.107,574.009,570.096,0.0
55960.0,STARLINK-5938,PAYLOAD,2024-06-25 20:13:04,14.98330363,0.0002811,70.0007,32.4516,263.011,97.073,-2.1453e-05,-3.49e-06,0.0,0 STARLINK-5938,1 55960U 23037AY  24177.84240931 -.00000349  00000-0 -21453-4 0  9999,2 55960  70.0007  32.4516 0002811 263.0110  97.0730 14.98330363 71663,6950.192,96.107,574.01,570.103,0.0
55960.0,STARLINK-5938,PAYLOAD,2024-06-25 21:49:12,14.9833106,0.0002797,70.0007,32.2833,262.2944,97.7898,-1.1627e-05,-2.32e-06,0.0,0 STARLINK-5938,1 55960U 23037AY  24177.90916849 -.00000232  00000-0 -11627-4 0  9997,2 55960  70.0007  32.2833 0002797 262.2944  97.7898 14.98331060 71333,6950.19,96.107,573.999,570.111,0.0
55960.0,STARLINK-5938,PAYLOAD,2024-06-25 23:25:20,14.98331805,0.0002793,70.0007,32.1151,261.9265,98.1578,-3.2176e-06,-1.31e-06,0.0,0 STARLINK-5938,1 55960U 23037AY  24177.97592768 -.00000131  00000-0 -32176-5 0  9995,2 55960  70.0007  32.1151 0002793 261.9265  98.1578 14.98331805 71341,6950.187,96.107,573.993,570.111,0.0
55960.0,STARLINK-5938,PAYLOAD,2024-06-26 23:27:21,14.98330231,0.0002791,70.0006,29.5906,262.3636,97.7206,-1.6151e-05,-2.86e-06,0.0,0 STARLINK-5938,1 55960U 23037AY  24178.97732823 -.00000286  00000-0 -16151-4 0  9999,2 55960  70.0006  29.5906 0002791 262.3636  97.7206 14.98330231 71832,6950.192,96.107,573.997,570.117,0.0
55960.0,STARLINK-5938,PAYLOAD,2024-06-27 21:53:14,14.98327252,0.0003032,70.0001,27.2321,268.3401,91.7411,-2.8828e-05,-4.37e-06,0.0,0 STARLINK-5938,1 55960U 23037AY  24179.91197174 -.00000437  00000-0 -28828-4 0  9990,2 55960  70.0001  27.2321 0003032 268.3401  91.7411 14.98327252 71637,6950.201,96.107,574.174,569.959,0.0
55960.0,STARLINK-5938,PAYLOAD,2024-06-27 23:29:22,14.98328025,0.0003021,70.0002,27.064,268.5409,91.5404,-1.8815e-05,-3.17e-06,0.0,0 STARLINK-5938,1 55960U 23037AY  24179.97873110 -.00000317  00000-0 -18815-4 0  9999,2 55960  70.0002  27.0640 0003021 268.5409  91.5404 14.98328025 71985,6950.199,96.107,574.164,569.964,0.0
55960.0,STARLINK-5938,PAYLOAD,2024-06-28 13:54:34,14.98331275,0.0003136,70.0001,25.5478,267.69,92.39,9.981e-05,1.098e-05,0.0,0 STARLINK-5938,1 55960U 23037AY  24180.57956439  .00001098  00000-0  99810-4 0  9992,2 55960  70.0001  25.5478 0003136 267.6900  92.3900 14.98331275 71733,6950.189,96.107,574.234,569.874,0.0
55960.0,STARLINK-5938,PAYLOAD,2024-06-28 20:19:06,14.98333801,0.0003098,70.0001,24.8745,267.7485,92.332,0.00012069,1.347e-05,0.0,0 STARLINK-5938,1 55960U 23037AY  24180.84660199  .00001347  00000-0  12069-3 0  9994,2 55960  70.0001  24.8745 0003098 267.7485  92.3320 14.98333801 72114,6950.181,96.107,574.199,569.893,0.0
55960.0,STARLINK-5938,PAYLOAD,2024-06-28 21:55:14,14.98337366,0.0003042,70.0001,24.7061,267.8975,92.1836,0.00015713,1.783e-05,0.0,0 STARLINK-5938,1 55960U 23037AY  24180.91335853  .00001783  00000-0  15713-3 0  9991,2 55960  70.0001  24.7061 0003042 267.8975  92.1836 14.98337366 71780,6950.17,96.107,574.149,569.921,0.0
55960.0,STARLINK-5938,PAYLOAD,2024-06-29 13:56:35,14.98326294,0.0002654,70.0022,23.0275,264.6436,95.442,4.0588e-05,3.91e-06,0.0,0 STARLINK-5938,1 55960U 23037AY  24181.58096916  .00000391  00000-0  40588-4 0  9992,2 55960  70.0022  23.0275 0002654 264.6436  95.4420 14.98326294 72220,6950.204,96.107,573.914,570.225,0.0
55960.0,STARLINK-5938,PAYLOAD,2024-06-29 20:21:06,14.98351129,0.0003073,70.0001,22.3501,272.4427,87.638,0.00026545,3.077e-05,0.0,0 STARLINK-5938,1 55960U 23037AY  24181.84798654  .00003077  00000-0  26545-3 0  9999,2 55960  70.0001  22.3501 0003073 272.4427  87.6380 14.98351129 72261,6950.128,96.106,574.128,569.857,0.0
55960.0,STARLINK-5938,PAYLOAD,2024-06-29 21:57:13,14.98355227,0.0003075,70.0001,22.1817,272.4184,87.6623,0.00030537,3.555e-05,0.0,0 STARLINK-5938,1 55960U 23037AY  24181.91474217  .00003555  00000-0  30537-3 0  9990,2 55960  70.0001  22.1817 0003075 272.4184  87.6623 14.98355227 71937,6950.115,96.105,574.117,569.843,0.0
55960.0,STARLINK-5938,PAYLOAD,2024-06-30 13:58:36,14.98327432,0.0003422,70.0002,20.4981,270.2004,89.8763,-0.00014826,-1.862e-05,0.0,0 STARLINK-5938,1 55960U 23037AY  24182.58236852 -.00001862  00000-0 -14826-3 0  9999,2 55960  70.0002  20.4981 0003422 270.2004  89.8763 14.98327432 72032,6950.201,96.107,574.444,569.687,0.0
55960.0,STARLINK-5938,PAYLOAD,2024-06-30 20:23:08,14.9832841,0.0003651,69.9984,19.8237,275.3024,84.7719,-0.00016079,-2.011e-05,0.0,0 STARLINK-5938,1 55960U 23037AY  24182.84940907 -.00002011  00000-0 -16079-3 0  9990,2 55960  69.9984  19.8237 0003651 275.3024  84.7719 14.98328410 72410,6950.198,96.107,574.6,569.525,0.0
55960.0,STARLINK-5938,PAYLOAD,2024-06-30 21:59:16,14.98327986,0.0003613,69.9987,19.6558,272.4759,87.5986,-0.00012915,-1.634e-05,0.0,0 STARLINK-5938,1 55960U 23037AY  24182.91616825 -.00001634  00000-0 -12915-3 0  9992,2 55960  69.9987  19.6558 0003613 272.4759  87.5986 14.98327986 72085,6950.199,96.107,574.575,569.553,0.0
55960.0,STARLINK-5938,PAYLOAD,2024-07-01 14:00:37,14.98326687,0.0003463,69.9993,17.9745,271.8758,88.2004,-5.7181e-05,-7.75e-06,0.0,0 STARLINK-5938,1 55960U 23037AY  24183.58376888 -.00000775  00000-0 -57181-4 0  9998,2 55960  69.9993  17.9745 0003463 271.8758  88.2004 14.98326687 72183,6950.203,96.107,574.475,569.661,0.0
55960.0,STARLINK-5938,PAYLOAD,2024-07-01 20:25:09,14.98329674,0.0003359,69.9999,17.3005,274.9884,85.0891,7.3716e-05,7.87e-06,0.0,0 STARLINK-5938,1 55960U 23037AY  24183.85080374  .00000787  00000-0  73716-4 0  9993,2 55960  69.9999  17.3005 0003359 274.9884  85.0891 14.98329674 72560,6950.194,96.107,574.393,569.724,0.0
55960.0,STARLINK-5938,PAYLOAD,2024-07-01 22:01:17,14.98329893,0.0003209,69.9999,17.1321,271.7568,88.3224,0.00010754,1.19e-05,0.0,0 STARLINK-5938,1 55960U 23037AY  24183.91756263  .00001190  00000-0  10754-3 0  9998,2 55960  69.9999  17.1321 0003209 271.7568  88.3224 14.98329893 72230,6950.193,96.107,574.289,569.828,0.0
55960.0,STARLINK-5938,PAYLOAD,2024-07-02 14:02:38,14.98318076,0.0003008,70.0002,15.4489,268.2802,91.8013,6.6017e-05,6.95e-06,0.0,0 STARLINK-5938,1 55960U 23037AY  24184.58516974  .00000695  00000-0  66017-4 0  9998,2 55960  70.0002  15.4489 0003008 268.2802  91.8013 14.98318076 72330,6950.23,96.108,574.185,570.004,0.0
55960.0,STARLINK-5938,PAYLOAD,2024-07-02 20:27:10,14.98321604,0.0002996,70.0003,14.7757,268.6218,91.4597,9.8395e-05,1.081e-05,0.0,0 STARLINK-5938,1 55960U 23037AY  24184.85220839  .00001081  00000-0  98395-4 0  9994,2 55960  70.0003  14.7757 0002996 268.6218  91.4597 14.98321604 72717,6950.219,96.108,574.166,570.002,0.0
55960.0,STARLINK-5938,PAYLOAD,2024-07-02 22:03:18,14.98322928,0.0002989,70.0004,14.6074,268.758,91.3237,0.00011066,1.227e-05,0.0,0 STARLINK-5938,1 55960U 23037AY  24184.91896756  .00001227  00000-0  11066-3 0  9999,2 55960  70.0004  14.6074 0002989 268.7580  91.3237 14.98322928 72387,6950.215,96.107,574.157,570.002,0.0
55960.0,STARLINK-5938,PAYLOAD,2024-07-03 20:29:11,14.98336997,0.0002883,70.0005,12.2509,266.8353,93.2476,-6.1261e-05,-8.24e-06,0.0,0 STARLINK-5938,1 55960U 23037AY  24185.85360460 -.00000824  00000-0 -61261-4 0  9998,2 55960  70.0005  12.2509 0002883 266.8353  93.2476 14.98336997 72865,6950.171,96.107,574.04,570.033,0.0
55960.0,STARLINK-5938,PAYLOAD,2024-07-03 22:05:19,14.98332592,0.0003031,70.0005,12.0826,268.9761,91.1051,2.5938e-05,2.17e-06,0.0,0 STARLINK-5938,1 55960U 23037AY  24185.92036511  .00000217  00000-0  25938-4 0  9998,2 55960  70.0005  12.0826 0003031 268.9761  91.1051 14.98332592 72534,6950.185,96.107,574.156,569.943,0.0
55960.0,STARLINK-5938,PAYLOAD,2024-07-04 12:30:32,14.98326678,0.0003085,70.0002,10.5665,268.9451,91.1355,6.3347e-05,6.63e-06,0.0,0 STARLINK-5938,1 55960U 23037AY  24186.52120709  .00000663  00000-0  63347-4 0  9999,2 55960  70.0002  10.5665 0003085 268.9451  91.1355 14.98326678 72962,6950.203,96.107,574.212,569.924,0.0
55960.0,STARLINK-5938,PAYLOAD,2024-07-04 14:06:40,14.98326604,0.0003082,70.0003,10.3984,269.1241,90.9564,5.689e-05,5.86e-06,0.0,0 STARLINK-5938,1 55960U 23037AY  24186.58796746  .00000586  00000-0  56890-4 0  9994,2 55960  70.0003  10.3984 0003082 269.1241  90.9564 14.98326604 72634,6950.203,96.107,574.21,569.926,0.0
55960.0,STARLINK-5938,PAYLOAD,2024-07-04 22:07:20,14.98331664,0.0003089,70.0004,9.5572,269.9452,90.1353,4.693e-05,4.67e-06,0.0,0 STARLINK-5938,1 55960U 23037AY  24186.92176485  .00000467  00000-0  46930-4 0  9996,2 55960  70.0004   9.5572 0003089 269.9452  90.1353 14.98331664 72682,6950.188,96.107,574.2,569.906,0.0
